{
  "type": "FeatureCollection",
  "features": [
    {
      "type": "Feature",
      "properties": {
        "norad_id": 35773,
        "name": "COSMOS 2251 DEB",
        "group": "cosmos-2251-debris",
        "lat": -64.61464631864027,
        "lon": -77.85510786890441,
        "alt_km": 724.9416683832815,
        "timestamp": "2025-12-23T22:42:33.382406+00:00",
        "meta_object_name": "COSMOS 2251 DEB",
        "meta_object_id": "1993-036ART",
        "meta_epoch": "2025-12-22T07:37:13.394496",
        "meta_mean_motion": 14.62118587,
        "meta_eccentricity": 0.00452277,
        "meta_inclination": 74.0085,
        "meta_ra_of_asc_node": 322.449,
        "meta_arg_of_pericenter": 119.6658,
        "meta_mean_anomaly": 240.9023,
        "meta_ephemeris_type": 0,
        "meta_classification_type": "U",
        "meta_norad_cat_id": 35773,
        "meta_element_set_no": 999,
        "meta_rev_at_epoch": 86979,
        "meta_bstar": 0.00058289058,
        "meta_mean_motion_dot": 2.944e-05,
        "meta_mean_motion_ddot": 0,
        "tle_line1": "1 35773U 93036ART 25356.31751614  .00002944  00000+0  58289-3 0  9998",
        "tle_line2": "2 35773  74.0085 322.4490 0045227 119.6658 240.9023 14.62118587869793"
      },
      "geometry": {
        "type": "Point",
        "coordinates": [
          -77.85510786890441,
          -64.61464631864027
        ]
      }
    },
    {
      "type": "Feature",
      "properties": {
        "norad_id": 35777,
        "name": "COSMOS 2251 DEB",
        "group": "cosmos-2251-debris",
        "lat": -73.74253290397881,
        "lon": -148.0075979434892,
        "alt_km": 988.7720938042694,
        "timestamp": "2025-12-23T22:42:33.382416+00:00",
        "meta_object_name": "COSMOS 2251 DEB",
        "meta_object_id": "1993-036ARX",
        "meta_epoch": "2025-12-22T04:19:16.095360",
        "meta_mean_motion": 13.41306748,
        "meta_eccentricity": 0.04518391,
        "meta_inclination": 73.7706,
        "meta_ra_of_asc_node": 307.656,
        "meta_arg_of_pericenter": 201.1078,
        "meta_mean_anomaly": 178.0054,
        "meta_ephemeris_type": 0,
        "meta_classification_type": "U",
        "meta_norad_cat_id": 35777,
        "meta_element_set_no": 999,
        "meta_rev_at_epoch": 79811,
        "meta_bstar": 0.00017716919,
        "meta_mean_motion_dot": 1.57e-06,
        "meta_mean_motion_ddot": 0,
        "tle_line1": "1 35777U 93036ARX 25356.18004740  .00000157  00000+0  17717-3 0  9993",
        "tle_line2": "2 35777  73.7706 307.6560 0451839 201.1078 178.0054 13.41306748798115"
      },
      "geometry": {
        "type": "Point",
        "coordinates": [
          -148.0075979434892,
          -73.74253290397881
        ]
      }
    },
    {
      "type": "Feature",
      "properties": {
        "norad_id": 35784,
        "name": "COSMOS 2251 DEB",
        "group": "cosmos-2251-debris",
        "lat": -0.23347383803180838,
        "lon": -111.26158927619804,
        "alt_km": 699.8399069988327,
        "timestamp": "2025-12-23T22:42:33.382427+00:00",
        "meta_object_name": "COSMOS 2251 DEB",
        "meta_object_id": "1993-036ASE",
        "meta_epoch": "2025-12-17T23:28:57.859680",
        "meta_mean_motion": 14.50055355,
        "meta_eccentricity": 0.00415956,
        "meta_inclination": 74.0403,
        "meta_ra_of_asc_node": 79.8718,
        "meta_arg_of_pericenter": 209.9484,
        "meta_mean_anomaly": 149.9297,
        "meta_ephemeris_type": 0,
        "meta_classification_type": "U",
        "meta_norad_cat_id": 35784,
        "meta_element_set_no": 999,
        "meta_rev_at_epoch": 65782,
        "meta_bstar": 0.00024795111,
        "meta_mean_motion_dot": 9.44e-06,
        "meta_mean_motion_ddot": 0,
        "tle_line1": "1 35784U 93036ASE 25351.97844745  .00000944  00000+0  24795-3 0  9998",
        "tle_line2": "2 35784  74.0403  79.8718 0041595 209.9484 149.9297 14.50055355657829"
      },
      "geometry": {
        "type": "Point",
        "coordinates": [
          -111.26158927619804,
          -0.23347383803180838
        ]
      }
    },
    {
      "type": "Feature",
      "properties": {
        "norad_id": 35786,
        "name": "COSMOS 2251 DEB",
        "group": "cosmos-2251-debris",
        "lat": 30.922924350558517,
        "lon": 32.02969569517911,
        "alt_km": 681.3288632802723,
        "timestamp": "2025-12-23T22:42:33.382437+00:00",
        "meta_object_name": "COSMOS 2251 DEB",
        "meta_object_id": "1993-036ASG",
        "meta_epoch": "2025-12-21T19:48:04.443552",
        "meta_mean_motion": 14.66307498,
        "meta_eccentricity": 0.00333198,
        "meta_inclination": 74.0136,
        "meta_ra_of_asc_node": 26.2337,
        "meta_arg_of_pericenter": 153.7976,
        "meta_mean_anomaly": 206.4889,
        "meta_ephemeris_type": 0,
        "meta_classification_type": "U",
        "meta_norad_cat_id": 35786,
        "meta_element_set_no": 999,
        "meta_rev_at_epoch": 73541,
        "meta_bstar": 0.0006728661,
        "meta_mean_motion_dot": 3.713e-05,
        "meta_mean_motion_ddot": 0,
        "tle_line1": "1 35786U 93036ASG 25355.82505143  .00003713  00000+0  67287-3 0  9994",
        "tle_line2": "2 35786  74.0136  26.2337 0033319 153.7976 206.4889 14.66307498735417"
      },
      "geometry": {
        "type": "Point",
        "coordinates": [
          32.02969569517911,
          30.922924350558517
        ]
      }
    },
    {
      "type": "Feature",
      "properties": {
        "norad_id": 35789,
        "name": "COSMOS 2251 DEB",
        "group": "cosmos-2251-debris",
        "lat": -52.62577136090625,
        "lon": -118.20240375007832,
        "alt_km": 759.282503420076,
        "timestamp": "2025-12-23T22:42:33.382447+00:00",
        "meta_object_name": "COSMOS 2251 DEB",
        "meta_object_id": "1993-036ASK",
        "meta_epoch": "2025-12-20T11:22:01.638048",
        "meta_mean_motion": 14.35991601,
        "meta_eccentricity": 0.00476765,
        "meta_inclination": 74.0388,
        "meta_ra_of_asc_node": 270.1736,
        "meta_arg_of_pericenter": 7.6909,
        "meta_mean_anomaly": 352.4963,
        "meta_ephemeris_type": 0,
        "meta_classification_type": "U",
        "meta_norad_cat_id": 35789,
        "meta_element_set_no": 999,
        "meta_rev_at_epoch": 61338,
        "meta_bstar": 9.629757e-05,
        "meta_mean_motion_dot": 2.57e-06,
        "meta_mean_motion_ddot": 0,
        "tle_line1": "1 35789U 93036ASK 25354.47363007  .00000257  00000+0  96298-4 0  9993",
        "tle_line2": "2 35789  74.0388 270.1736 0047676   7.6909 352.4963 14.35991601613383"
      },
      "geometry": {
        "type": "Point",
        "coordinates": [
          -118.20240375007832,
          -52.62577136090625
        ]
      }
    },
    {
      "type": "Feature",
      "properties": {
        "norad_id": 35793,
        "name": "COSMOS 2251 DEB",
        "group": "cosmos-2251-debris",
        "lat": -69.40756083537187,
        "lon": -11.453300078473008,
        "alt_km": 640.9772862550117,
        "timestamp": "2025-12-23T22:42:33.382457+00:00",
        "meta_object_name": "COSMOS 2251 DEB",
        "meta_object_id": "1993-036ASP",
        "meta_epoch": "2025-12-22T19:59:17.179008",
        "meta_mean_motion": 14.78898886,
        "meta_eccentricity": 0.00021779,
        "meta_inclination": 74.0403,
        "meta_ra_of_asc_node": 40.3457,
        "meta_arg_of_pericenter": 77.0765,
        "meta_mean_anomaly": 40.8773,
        "meta_ephemeris_type": 0,
        "meta_classification_type": "U",
        "meta_norad_cat_id": 35793,
        "meta_element_set_no": 999,
        "meta_rev_at_epoch": 65946,
        "meta_bstar": 0.0016902624,
        "meta_mean_motion_dot": 0.0001245,
        "meta_mean_motion_ddot": 0,
        "tle_line1": "1 35793U 93036ASP 25356.83283772  .00012450  00000+0  16903-2 0  9991",
        "tle_line2": "2 35793  74.0403  40.3457 0002177  77.0765  40.8773 14.78898886659465"
      },
      "geometry": {
        "type": "Point",
        "coordinates": [
          -11.453300078473008,
          -69.40756083537187
        ]
      }
    },
    {
      "type": "Feature",
      "properties": {
        "norad_id": 35824,
        "name": "COSMOS 2251 DEB",
        "group": "cosmos-2251-debris",
        "lat": -72.33365302924243,
        "lon": -84.95969898924984,
        "alt_km": 1095.2385406853164,
        "timestamp": "2025-12-23T22:42:33.382468+00:00",
        "meta_object_name": "COSMOS 2251 DEB",
        "meta_object_id": "1993-036ASW",
        "meta_epoch": "2025-12-22T19:31:45.102144",
        "meta_mean_motion": 13.88451582,
        "meta_eccentricity": 0.02474981,
        "meta_inclination": 73.8455,
        "meta_ra_of_asc_node": 31.474,
        "meta_arg_of_pericenter": 115.7236,
        "meta_mean_anomaly": 246.9666,
        "meta_ephemeris_type": 0,
        "meta_classification_type": "U",
        "meta_norad_cat_id": 35824,
        "meta_element_set_no": 999,
        "meta_rev_at_epoch": 84367,
        "meta_bstar": 0.00094378544,
        "meta_mean_motion_dot": 1.423e-05,
        "meta_mean_motion_ddot": 0,
        "tle_line1": "1 35824U 93036ASW 25356.81371646  .00001423  00000+0  94379-3 0  9994",
        "tle_line2": "2 35824  73.8455  31.4740 0247498 115.7236 246.9666 13.88451582843676"
      },
      "geometry": {
        "type": "Point",
        "coordinates": [
          -84.95969898924984,
          -72.33365302924243
        ]
      }
    }
  ]
}